$$SOE
2461288.500000000, A.D. 2026-Sep-05 00:00:00.0000, -2.265590211097245E+08, 3.889342379564940E+08, 6.955891314102982E+07,
2461295.500000000, A.D. 2026-Sep-12 00:00:00.0000, -2.358285986350393E+08, 3.838402643395672E+08, 6.980387088329479E+07,
2461302.500000000, A.D. 2026-Sep-19 00:00:00.0000, -2.449775876733213E+08, 3.785498014091912E+08, 7.001300122649303E+07,
2461309.500000000, A.D. 2026-Sep-26 00:00:00.0000, -2.540016597504532E+08, 3.730661136856955E+08, 7.018629803727607E+07,
2461316.500000000, A.D. 2026-Oct-03 00:00:00.0000, -2.628965841954916E+08, 3.673925604321187E+08, 7.032377638610551E+07,
2461323.500000000, A.D. 2026-Oct-10 00:00:00.0000, -2.716582302932973E+08, 3.615325922154461E+08, 7.042547232489790E+07,
2461330.500000000, A.D. 2026-Oct-17 00:00:00.0000, -2.802825693250202E+08, 3.554897473550124E+08, 7.049144264142613E+07,
2461337.500000000, A.D. 2026-Oct-24 00:00:00.0000, -2.887656764723186E+08, 3.492676482426943E+08, 7.052176458726762E+07,
2461344.500000000, A.D. 2026-Oct-31 00:00:00.0000, -2.971037324870767E+08, 3.428699974752901E+08, 7.051653556571147E+07,
2461351.500000000, A.D. 2026-Nov-07 00:00:00.0000, -3.052930247884224E+08, 3.363005738799852E+08, 7.047587275555556E+07,
2461358.500000000, A.D. 2026-Nov-14 00:00:00.0000, -3.133299477876871E+08, 3.295632293268827E+08, 7.039991272597030E+07,
2461365.500000000, A.D. 2026-Nov-21 00:00:00.0000, -3.212110042558021E+08, 3.226618870176918E+08, 7.028881126569247E+07,
2461372.500000000, A.D. 2026-Nov-28 00:00:00.0000, -3.289328087334515E+08, 3.156005382508429E+08, 7.014274327374741E+07,
2461379.500000000, A.D. 2026-Dec-05 00:00:00.0000, -3.364920893644111E+08, 3.083832370125442E+08, 6.996190232701136E+07,
2461386.500000000, A.D. 2026-Dec-12 00:00:00.0000, -3.438856879895998E+08, 3.010140955089709E+08, 6.974650016479656E+07,
2461393.500000000, A.D. 2026-Dec-19 00:00:00.0000, -3.511105603935385E+08, 2.934972806531088E+08, 6.949676626572299E+07,
2461400.500000000, A.D. 2026-Dec-26 00:00:00.0000, -3.581637768479801E+08, 2.858370106455556E+08, 6.921294746031666E+07,
2461407.500000000, A.D. 2027-Jan-02 00:00:00.0000, -3.650425226782771E+08, 2.780375514637280E+08, 6.889530753925484E+07,
2461414.500000000, A.D. 2027-Jan-09 00:00:00.0000, -3.717440987375293E+08, 2.701032132834732E+08, 6.854412684879605E+07,
2461421.500000000, A.D. 2027-Jan-16 00:00:00.0000, -3.782659217565954E+08, 2.620383468447917E+08, 6.815970187154248E+07,
2461428.500000000, A.D. 2027-Jan-23 00:00:00.0000, -3.846055245292078E+08, 2.538473397248253E+08, 6.774234478602543E+07,
2461435.500000000, A.D. 2027-Jan-30 00:00:00.0000, -3.907605557509962E+08, 2.455346124738597E+08, 6.729238298523574E+07,
2461442.500000000, A.D. 2027-Feb-06 00:00:00.0000, -3.967287790943459E+08, 2.371046149587084E+08, 6.681015854421346E+07,
2461449.500000000, A.D. 2027-Feb-13 00:00:00.0000, -4.025080719855643E+08, 2.285618241375569E+08, 6.629602777965483E+07,
2461456.500000000, A.D. 2027-Feb-20 00:00:00.0000, -4.080964264544028E+08, 2.199107424797134E+08, 6.575036105459462E+07,
2461463.500000000, A.D. 2027-Feb-27 00:00:00.0000, -4.134919506646088E+08, 2.111558938212769E+08, 6.517354243814825E+07,
2461470.500000000, A.D. 2027-Mar-06 00:00:00.0000, -4.186928681090004E+08, 2.023018185813695E+08, 6.456596910066427E+07,
2461477.500000000, A.D. 2027-Mar-13 00:00:00.0000, -4.236975160727988E+08, 1.933530703881592E+08, 6.392805075872598E+07,
2461484.500000000, A.D. 2027-Mar-20 00:00:00.0000, -4.285043445007641E+08, 1.843142132813680E+08, 6.326020920618767E+07,
2461491.500000000, A.D. 2027-Mar-27 00:00:00.0000, -4.331119150715243E+08, 1.751898189446743E+08, 6.256287786877549E+07,
2461498.500000000, A.D. 2027-Apr-03 00:00:00.0000, -4.375189002807665E+08, 1.659844639221607E+08, 6.183650136054677E+07,
2461505.500000000, A.D. 2027-Apr-10 00:00:00.0000, -4.417240824765085E+08, 1.567027268433770E+08, 6.108153503921852E+07,
2461512.500000000, A.D. 2027-Apr-17 00:00:00.0000, -4.457263528288088E+08, 1.473491856440396E+08, 6.029844455785245E+07,
2461519.500000000, A.D. 2027-Apr-24 00:00:00.0000, -4.495247101589645E+08, 1.379284147213362E+08, 5.948770540114611E+07,
2461526.500000000, A.D. 2027-May-01 00:00:00.0000, -4.531182593325822E+08, 1.284449820524792E+08, 5.864980238162830E+07,
2461533.500000000, A.D. 2027-May-08 00:00:00.0000, -4.565062089128659E+08, 1.189034470252778E+08, 5.778522912914164E+07,
2461540.500000000, A.D. 2027-May-15 00:00:00.0000, -4.596878695750499E+08, 1.093083599339384E+08, 5.689448778921109E+07,
2461547.500000000, A.D. 2027-May-22 00:00:00.0000, -4.626626548511470E+08, 9.966426054849847E+07, 5.597808886248897E+07,
2461554.500000000, A.D. 2027-May-29 00:00:00.0000, -4.654300808536457E+08, 8.997567429072303E+07, 5.503655075807525E+07,
2461561.500000000, A.D. 2027-Jun-05 00:00:00.0000, -4.679897640951955E+08, 8.024710914823495E+07, 5.407039923570494E+07,
2461568.500000000, A.D. 2027-Jun-12 00:00:00.0000, -4.703414194146700E+08, 7.048305375693157E+07, 5.308016695640136E+07,
2461575.500000000, A.D. 2027-Jun-19 00:00:00.0000, -4.724848583454584E+08, 6.068797571555973E+07, 5.206639309603965E+07,
2461582.500000000, A.D. 2027-Jun-26 00:00:00.0000, -4.744199876509538E+08, 5.086631987083767E+07, 5.102962297537692E+07,
2461589.500000000, A.D. 2027-Jul-03 00:00:00.0000, -4.761468078986009E+08, 4.102250658091993E+07, 4.997040769555859E+07,
2461596.500000000, A.D. 2027-Jul-10 00:00:00.0000, -4.776654120388612E+08, 3.116092996501634E+07, 4.888930377683535E+07,
2461603.500000000, A.D. 2027-Jul-17 00:00:00.0000, -4.789759839559316E+08, 2.128595609916887E+07, 4.778687279437660E+07,
2461610.500000000, A.D. 2027-Jul-24 00:00:00.0000, -4.800787968369434E+08, 1.140192109415276E+07, 4.666368099207573E+07,
2461617.500000000, A.D. 2027-Jul-31 00:00:00.0000, -4.809742109511980E+08, 1.513129289737381E+06, 4.552029885619454E+07,
2461624.500000000, A.D. 2027-Aug-07 00:00:00.0000, -4.816626710428669E+08, -8.376147284471994E+06, 4.435730076161654E+07,
2461631.500000000, A.D. 2027-Aug-14 00:00:00.0000, -4.821447056413819E+08, -1.826166843685530E+07, 4.317526488122199E+07,
2461638.500000000, A.D. 2027-Aug-21 00:00:00.0000, -4.824209276756614E+08, -2.813922769601588E+07, 4.197477302696165E+07,
2461645.500000000, A.D. 2027-Aug-28 00:00:00.0000, -4.824920329645091E+08, -3.800465534431784E+07, 4.075641020640782E+07,
2461652.500000000, A.D. 2027-Sep-04 00:00:00.0000, -4.823587977649566E+08, -4.785382010064815E+07, 3.952076420733878E+07,
2461659.500000000, A.D. 2027-Sep-11 00:00:00.0000, -4.820220767742337E+08, -5.768263011530671E+07, 3.826842528380179E+07,
2461666.500000000, A.D. 2027-Sep-18 00:00:00.0000, -4.814828014534093E+08, -6.748703392910157E+07, 3.699998587787037E+07,
2461673.500000000, A.D. 2027-Sep-25 00:00:00.0000, -4.807419784450952E+08, -7.726302147614804E+07, 3.571604034939427E+07,
2461680.500000000, A.D. 2027-Oct-02 00:00:00.0000, -4.798006880115756E+08, -8.700662510506716E+07, 3.441718470880926E+07,
2461687.500000000, A.D. 2027-Oct-09 00:00:00.0000, -4.786600824731076E+08, -9.671392062548018E+07, 3.310401635036940E+07,
2461694.500000000, A.D. 2027-Oct-16 00:00:00.0000, -4.773213845860535E+08, -1.063810284365724E+08, 3.177713377537611E+07,
2461701.500000000, A.D. 2027-Oct-23 00:00:00.0000, -4.757858856036520E+08, -1.160041147445934E+08, 3.043713628094810E+07,
2461708.500000000, A.D. 2027-Oct-30 00:00:00.0000, -4.740549426465392E+08, -1.255793922596954E+08, 2.908462362963828E+07,
2461715.500000000, A.D. 2027-Nov-06 00:00:00.0000, -4.721299765472749E+08, -1.351031192448743E+08, 2.772019589852782E+07,
2461722.500000000, A.D. 2027-Nov-13 00:00:00.0000, -4.700124721551447E+08, -1.445715989949557E+08, 2.634445351993461E+07,
2461729.500000000, A.D. 2027-Nov-20 00:00:00.0000, -4.677039782013205E+08, -1.539811819333662E+08, 2.495799706881876E+07,
2461736.500000000, A.D. 2027-Nov-27 00:00:00.0000, -4.652061051080172E+08, -1.633282673630742E+08, 2.356142689074923E+07,
2461743.500000000, A.D. 2027-Dec-04 00:00:00.0000, -4.625205227647254E+08, -1.726093039586572E+08, 2.215534283056562E+07,
2461750.500000000, A.D. 2027-Dec-11 00:00:00.0000, -4.596489588218074E+08, -1.818207899654537E+08, 2.074034403325649E+07,
2461757.500000000, A.D. 2027-Dec-18 00:00:00.0000, -4.565931972272539E+08, -1.909592734471904E+08, 1.931702876400539E+07,
2461764.500000000, A.D. 2027-Dec-25 00:00:00.0000, -4.533550768557633E+08, -2.000213525860902E+08, 1.788599423324154E+07,
2461771.500000000, A.D. 2028-Jan-01 00:00:00.0000, -4.499364901895695E+08, -2.090036760223559E+08, 1.644783642406803E+07,
$$EOE